{"type":"FeatureCollection","properties":{"source":"geoBoundaries CHN ADM2 gbOpen","boundaryYearRepresented":"2017","sourceDatasetID":"CHN-ADM2-17275852","license":"Open Data Commons Public Domain Dedication and License (PDDL) v1.0","use":"Historical orientation only; not current administrative units or statistical join keys","sourceSha256":"bbe1d60ec538c0a0f4dad3b1edaf54e4a419e5207e38fede283768e452719a9f"},"features":[{"type":"Feature","properties":{"shapeName":"Wenchangxian","shapeISO":"","shapeID":"17275852B41190306193582","shapeGroup":"CHN","shapeType":"ADM2"},"geometry":{"type":"Polygon","coordinates":[[[110.62425459600007,19.894288119000066],[110.63887539500007,19.867803897000044],[110.64773809400003,19.834373413000037],[110.69260967200006,19.764582173000065],[110.69158685100007,19.734239742000057],[110.64997783800004,19.73422977900003],[110.62195746900005,19.732064215000037],[110.61581339800006,19.702115089000074],[110.62554312800006,19.672352599000078],[110.58977007400006,19.65859134300007],[110.60488802800006,19.61095608100004],[110.63028645100007,19.597002821000046],[110.61350718100005,19.559553829000038],[110.60844185700006,19.519936793000056],[110.59252797700009,19.489844307000055],[110.56512752700007,19.481686256000046],[110.54432143800005,19.502128587000072],[110.51601562000008,19.524769156000048],[110.45335517500007,19.51412494300007],[110.42914860500008,19.46978568000003],[110.45943102900009,19.440748906000067],[110.49248877800005,19.443029504000037],[110.51749398900006,19.422184883000057],[110.53239152300006,19.390159733000075],[110.55979294600007,19.36196893300007],[110.56867955400008,19.325711038000065],[110.56722989100007,19.29530866500005],[110.63818454500006,19.282446738000033],[110.64032648300008,19.29851473900004],[110.66967143400007,19.304051539000056],[110.68198788300003,19.31805355800003],[110.68391007100007,19.33114668500008],[110.68299023300006,19.34331250100007],[110.67923287300005,19.361098792000064],[110.68493664800008,19.370435301000043],[110.70296619000004,19.390027057000054],[110.73426670400005,19.40208487600006],[110.73906118100007,19.433866694000073],[110.75614310100008,19.442223710000064],[110.77134100600006,19.454324772000064],[110.79793102500008,19.468249511000067],[110.81220302600008,19.488760393000064],[110.81890135100008,19.50649684700005],[110.82844976900009,19.524220263000075],[110.82946215700008,19.543846491000068],[110.82759805300009,19.55413567200003],[110.76890274700008,19.606714372000056],[110.82113343300006,19.610242138000046],[110.84296721500004,19.60921240400006],[110.86578658500008,19.619387755000048],[110.89245747300004,19.639816843000062],[110.89332701700005,19.62112505400006],[110.88186666700005,19.60155590200003],[110.87232292300007,19.59038580400005],[110.83436329200003,19.592429460000062],[110.84743082900007,19.528810477000036],[110.85500032200008,19.524100241000042],[110.87301056500007,19.518407944000046],[110.88064867000008,19.530524505000074],[110.97976573600005,19.62720060500004],[110.98928994000005,19.63088267200004],[111.02723589200008,19.625043490000053],[111.03391625800003,19.631542108000076],[111.02270594000004,19.66618583500008],[111.01232786600008,19.68026571000007],[111.00003781400005,19.69248540800004],[111.00104586500004,19.704623483000034],[110.99734866300008,19.72426156800003],[110.99649379100003,19.74388201100004],[110.99860148700009,19.78496234000005],[110.99677380100007,19.798980415000074],[110.99685047200006,19.814855168000065],[110.99224934000006,19.844759018000047],[110.97718964200004,19.881256016000066],[110.97628609400005,19.890597081000067],[110.96879117600008,19.91584247800006],[110.96696307200006,19.93078510400005],[110.96128860000005,19.94108129500006],[110.95658071600008,19.95417445000004],[110.94520388200004,19.96916675700004],[110.93673564200009,19.989742714000045],[110.91102008300004,19.997340546000032],[110.90247429100003,20.003916884000034],[110.88814316600008,19.996521279000035],[110.87573836800004,19.99284893400005],[110.86045546600008,19.983590246000063],[110.85092326200004,19.980836004000025],[110.83757227700005,19.97996212700008],[110.81376307600004,19.984728890000042],[110.80234430200005,19.99130572400003],[110.79664027200005,19.99972651400003],[110.77573502900009,20.020332646000043],[110.76242926700007,20.03717516000006],[110.72529152800007,20.05875929800004],[110.71673526000006,20.071844506000048],[110.68441080900004,20.13349658900006],[110.64710874700006,20.080438038000068],[110.60609249900006,20.084262153000054],[110.58986844200007,20.08336216200007],[110.57460163000007,20.072197304000042],[110.55837294600008,20.064764957000023],[110.54979285300004,20.046120205000022],[110.57932171200008,20.01528570100004],[110.60600770000008,20.002172426000072],[110.60885527400006,19.990969208000024],[110.60978454600007,19.97510451200003],[110.61739373400007,19.949893013000064],[110.61928152200005,19.93775587700003],[110.63542335500006,19.90131933200007],[110.63066331700009,19.894795139000053],[110.62425459600007,19.894288119000066]]]}},{"type":"Feature","properties":{"shapeName":"Qiongshanshi","shapeISO":"","shapeID":"17275852B86431238150342","shapeGroup":"CHN","shapeType":"ADM2"},"geometry":{"type":"Polygon","coordinates":[[[110.62425459600007,19.894288119000066],[110.60875425500006,19.893912186000023],[110.60114033200006,19.89579489600004],[110.59923856600005,19.905134417000056],[110.59068099700005,19.921016492000035],[110.58497731200003,19.928495017000046],[110.56689640400003,19.938792782000064],[110.57642063100008,19.959307264000074],[110.57834320400008,19.97143617000006],[110.57835211300005,19.98543034100004],[110.56310185400008,19.98825678000003],[110.54784257300008,19.960288994000052],[110.53355426300004,19.99296619300003],[110.52784215500009,20.002306390000058],[110.48971030100006,20.014477732000046],[110.47540284400009,20.021954398000048],[110.44202340900006,20.04063338800006],[110.40287554300005,20.075159032000045],[110.38666290700007,20.08261999800004],[110.38321081900006,20.082422542000074],[110.35397172900008,19.94355497500004],[110.32091866100006,19.93113257300007],[110.29328326000007,19.903165715000057],[110.25651951600008,19.889286539000068],[110.22458624000006,19.89476325100003],[110.19352765100007,19.903917637000063],[110.16251669400003,19.908927945000073],[110.12475628700008,19.92529972600005],[110.13062664700004,19.885895067000035],[110.12049110500004,19.851732656000024],[110.13976231800007,19.821274218000042],[110.17756247500006,19.80121455500006],[110.18899528900005,19.763258015000076],[110.18392583000008,19.732843400000036],[110.19690023900006,19.706988571000068],[110.21138279800005,19.699828524000054],[110.23312038400007,19.692645981000055],[110.25848221800004,19.692579301000023],[110.33459048800006,19.692342116000077],[110.38175649900006,19.706424149000043],[110.36217779800006,19.606376066000053],[110.36706687600008,19.562757471000054],[110.38671207300007,19.530839854000078],[110.45335517500007,19.51412494300007],[110.51601562000008,19.524769156000048],[110.54432143800005,19.502128587000072],[110.56512752700007,19.481686256000046],[110.59252797700009,19.489844307000055],[110.60844185700006,19.519936793000056],[110.61350718100005,19.559553829000038],[110.63028645100007,19.597002821000046],[110.60488802800006,19.61095608100004],[110.58977007400006,19.65859134300007],[110.62554312800006,19.672352599000078],[110.61581339800006,19.702115089000074],[110.62195746900005,19.732064215000037],[110.64997783800004,19.73422977900003],[110.69158685100007,19.734239742000057],[110.69260967200006,19.764582173000065],[110.64773809400003,19.834373413000037],[110.63887539500007,19.867803897000044],[110.62425459600007,19.894288119000066]]]}},{"type":"Feature","properties":{"shapeName":"Haikoushi","shapeISO":"","shapeID":"17275852B2295538790743","shapeGroup":"CHN","shapeType":"ADM2"},"geometry":{"type":"Polygon","coordinates":[[[110.38321081900006,20.082422542000074],[110.35899341800007,20.07981589600007],[110.34850940800004,20.075148029000047],[110.33707202100004,20.072344301000044],[110.31328724900004,20.039681638000047],[110.29711606600006,20.022874382000055],[110.27136484200008,20.024713941000073],[110.24559455000008,20.034940925000058],[110.22457036400004,20.048900280000055],[110.20738191000004,20.057266759000072],[110.19593436800005,20.060043456000074],[110.18445373900005,20.068415191000042],[110.16635710800006,20.062779057000057],[110.15400216000006,20.049691924000058],[110.12932573200004,20.016980228000023],[110.07897032900007,19.977650090000054],[110.10468012700005,19.983322246000057],[110.12087331800006,19.985234890000072],[110.12948932900008,19.974993007000023],[110.12953246300009,19.963795963000052],[110.11907257300004,19.95630224300004],[110.10857634700005,19.96187345100003],[110.06608861200004,19.96665215200005],[110.10379100400007,19.943776961000026],[110.12475628700008,19.92529972600005],[110.16251669400003,19.908927945000073],[110.19352765100007,19.903917637000063],[110.22458624000006,19.89476325100003],[110.25651951600008,19.889286539000068],[110.29328326000007,19.903165715000057],[110.32091866100006,19.93113257300007],[110.35397172900008,19.94355497500004],[110.38321081900006,20.082422542000074]]]}},{"type":"Feature","properties":{"shapeName":"Lingaoxian","shapeISO":"","shapeID":"17275852B98891327369808","shapeGroup":"CHN","shapeType":"ADM2"},"geometry":{"type":"Polygon","coordinates":[[[109.84842823000008,19.925377839000078],[109.84018679200005,19.91596862800003],[109.84937013100006,19.966413333000048],[109.83876179000004,19.984084145000054],[109.83300522500008,19.99058350100006],[109.82264094600004,19.973731986000075],[109.82281220500005,19.94853531800004],[109.81338395800009,19.934483928000077],[109.80655219700009,19.959640981000064],[109.79510583000007,19.95957478300005],[109.77694190500006,19.967863847000046],[109.73783826700009,19.97135289000005],[109.71750351500003,20.01134028900003],[109.67653569200007,20.008261203000075],[109.63179811100008,19.999537660000044],[109.60139594900005,19.98904000700003],[109.57769366200006,19.975789692000035],[109.52473209600004,19.935221623000075],[109.53151913200008,19.92501210100005],[109.55443040100005,19.91773898100007],[109.51083320300006,19.897766717000025],[109.51389018100008,19.878189146000068],[109.52345632300006,19.873605145000056],[109.55681392300005,19.870153008000045],[109.57020692300006,19.862793122000028],[109.53715973000004,19.836377759000072],[109.52743416000004,19.856835137000076],[109.511375,19.84455986000006],[109.50259552400007,19.84538860500004],[109.55092091400007,19.78913546700005],[109.56146593500006,19.759495704000074],[109.56549589300005,19.728329131000066],[109.56494777900008,19.692461464000075],[109.55943388800006,19.650035202000026],[109.56800436200007,19.604698073000066],[109.58851323000005,19.566978423000023],[109.63424556500007,19.567057195000075],[109.664554,19.54838610400003],[109.68949453200008,19.51901222600003],[109.74282764200007,19.512301566000076],[109.76518471400004,19.534842343000037],[109.79506416300006,19.555685269000037],[109.82199114400004,19.583819342000027],[109.84785577500008,19.61882018800003],[109.85673719900007,19.663135014000034],[109.88131549000008,19.694412087000046],[109.87964651800007,19.728856732000054],[109.86104165800003,19.76894542200006],[109.82588902100008,19.816051344000073],[109.85890860200004,19.86998922500004],[109.84842823000008,19.925377839000078]]]}},{"type":"Feature","properties":{"shapeName":"Chengmaixian","shapeISO":"","shapeID":"17275852B7979903099841","shapeGroup":"CHN","shapeType":"ADM2"},"geometry":{"type":"Polygon","coordinates":[[[110.12475628700008,19.92529972600005],[110.10379100400007,19.943776961000026],[110.06608861200004,19.96665215200005],[110.04951742900005,19.957957347000047],[110.04385179500008,19.948605515000054],[110.03247990300008,19.935501474000034],[110.01153050000005,19.935423958000058],[110.01364541300006,19.892496407000067],[109.96301562000008,19.921229461000053],[109.99060651700006,19.929742780000026],[109.98671409400004,19.942793074000065],[109.96468780600009,19.96510015000007],[109.94267206500007,19.980867516000046],[109.90922607400006,19.994708686000024],[109.84842823000008,19.925377839000078],[109.85890860200004,19.86998922500004],[109.82588902100008,19.816051344000073],[109.86104165800003,19.76894542200006],[109.87964651800007,19.728856732000054],[109.88131549000008,19.694412087000046],[109.85673719900007,19.663135014000034],[109.84785577500008,19.61882018800003],[109.82199114400004,19.583819342000027],[109.79506416300006,19.555685269000037],[109.76518471400004,19.534842343000037],[109.74282764200007,19.512301566000076],[109.74588274400008,19.479695475000028],[109.73245053000005,19.455030400000055],[109.70219884100004,19.43138744500004],[109.71596224800004,19.378744322000045],[109.73035923100008,19.393055960000027],[109.75205872900005,19.385969100000068],[109.76651847000005,19.37886337200007],[109.78824397500006,19.36462926200005],[109.80268531500008,19.36465581400006],[109.81710514700006,19.378958199000067],[109.83877864600004,19.378991039000027],[109.86042292600007,19.39329394200007],[109.88211480500007,19.386181332000035],[109.89657453300003,19.379055769000047],[109.92268061900006,19.38514559600003],[109.92700714800009,19.424349860000063],[109.96106255400008,19.445692759000053],[110.00798290900008,19.42997814000006],[110.05470847000004,19.423902499000064],[110.07697032500005,19.454662994000046],[110.09801694900005,19.476190607000035],[110.13321925100007,19.48874604200006],[110.15373056400006,19.51439036900007],[110.09954138800003,19.544303871000068],[110.10686565400005,19.57708450900003],[110.10502289100003,19.625211625000077],[110.15486666500004,19.633071694000023],[110.16940500700008,19.603419555000073],[110.20839093300003,19.59024988400006],[110.23082279800008,19.61543670100008],[110.22938430800008,19.628487681000024],[110.23667229200004,19.65699072600006],[110.23669640000008,19.67125119800005],[110.25848221800004,19.692579301000023],[110.23312038400007,19.692645981000055],[110.21138279800005,19.699828524000054],[110.19690023900006,19.706988571000068],[110.18392583000008,19.732843400000036],[110.18899528900005,19.763258015000076],[110.17756247500006,19.80121455500006],[110.13976231800007,19.821274218000042],[110.12049110500004,19.851732656000024],[110.13062664700004,19.885895067000035],[110.12475628700008,19.92529972600005]]]}},{"type":"Feature","properties":{"shapeName":"Chanzhoushi","shapeISO":"","shapeID":"17275852B38939963469829","shapeGroup":"CHN","shapeType":"ADM2"},"geometry":{"type":"Polygon","coordinates":[[[109.50259552400007,19.84538860500004],[109.49327490700006,19.846265689000063],[109.47142827200008,19.84140244500003],[109.45973409900006,19.86743597700007],[109.45589961800005,19.870201117000022],[109.43497387700006,19.868137457000046],[109.41877937600009,19.868917511000063],[109.36151085900008,19.882352956000034],[109.33390893800004,19.881135095000047],[109.31835861400003,19.907108677000053],[109.30581633000008,19.920975696000028],[109.28018338200008,19.91323086500006],[109.26224189200008,19.900896585000055],[109.24909468400006,19.886745888000064],[109.24743393200004,19.868056671000033],[109.25045712000008,19.855953697000075],[109.22204430800008,19.84442488600007],[109.20421236100009,19.82554483900003],[109.18739598900004,19.80199994700007],[109.17624742200007,19.783187871000052],[109.16794139500007,19.764408595000077],[109.16438266100005,19.746619673000055],[109.17220857000007,19.730835040000045],[109.18279033100004,19.72162118600005],[109.19704111000004,19.721788997000033],[109.21686586100009,19.732297369000037],[109.26484411300004,19.772072732000026],[109.28373903500005,19.782556795000062],[109.30395794900005,19.763164078000045],[109.28416584300004,19.74800301700003],[109.28048951400007,19.737689541000066],[109.29010304300004,19.729388076000077],[109.30652756300009,19.708080363000022],[109.30948049700004,19.699703827000064],[109.30866200800006,19.68941860900003],[109.30394601600005,19.686564458000078],[109.29520602400004,19.701419956000052],[109.28171827900007,19.71621809100003],[109.26730972800004,19.728202100000033],[109.25587772400007,19.729941715000052],[109.23877720200005,19.728815246000067],[109.21714922000007,19.71175020100003],[109.19133345400007,19.65165155400007],[109.18098778900008,19.644050509000067],[109.14794224300005,19.63056616600005],[109.10726788600005,19.617906134000066],[109.07804831800007,19.603512461000037],[109.04687630100005,19.592819305000035],[109.02614419000008,19.583194207000076],[108.96990751600003,19.53661027000004],[108.93897695200008,19.51372782900006],[108.94583423700004,19.499801726000044],[108.92689738800004,19.497658431000048],[108.90626690600004,19.48215847000006],[108.97028591700007,19.402771766000058],[109.00408783300009,19.394977039000025],[109.02835233100006,19.377695819000053],[109.05369583500004,19.403254809000032],[109.09236363400004,19.40384997500007],[109.12868369400007,19.38825240500006],[109.17370418500008,19.378393691000042],[109.19027566400007,19.352124177000064],[109.21560242800007,19.328376896000066],[109.25072977500008,19.32145150200006],[109.27963640200005,19.336920341000052],[109.34596365600004,19.311863024000047],[109.40003436400008,19.309491802000025],[109.43644015600006,19.324177336000048],[109.46428446600004,19.346473544000048],[109.48446057700005,19.30273740000007],[109.47919313300008,19.27129786200004],[109.49849346500008,19.24364825200007],[109.53200323400006,19.223688326000058],[109.55670466000004,19.18324328600005],[109.58895922200008,19.175669579000044],[109.62931182500006,19.139696380000032],[109.67048338500007,19.147957544000064],[109.67451689200004,19.195502114000078],[109.69150582700007,19.225344481000036],[109.70605348800007,19.261118054000065],[109.68816215900006,19.290677422000044],[109.65126743100006,19.29633651300003],[109.61958623200007,19.317292473000066],[109.63344544400007,19.341538323000066],[109.66072399900008,19.35041388700006],[109.71596224800004,19.378744322000045],[109.70219884100004,19.43138744500004],[109.73245053000005,19.455030400000055],[109.74588274400008,19.479695475000028],[109.74282764200007,19.512301566000076],[109.68949453200008,19.51901222600003],[109.664554,19.54838610400003],[109.63424556500007,19.567057195000075],[109.58851323000005,19.566978423000023],[109.56800436200007,19.604698073000066],[109.55943388800006,19.650035202000026],[109.56494777900008,19.692461464000075],[109.56549589300005,19.728329131000066],[109.56146593500006,19.759495704000074],[109.55092091400007,19.78913546700005],[109.50259552400007,19.84538860500004]]]}},{"type":"Feature","properties":{"shapeName":"Dinganxian","shapeISO":"","shapeID":"17275852B82960244806798","shapeGroup":"CHN","shapeType":"ADM2"},"geometry":{"type":"Polygon","coordinates":[[[110.45335517500007,19.51412494300007],[110.38671207300007,19.530839854000078],[110.36706687600008,19.562757471000054],[110.36217779800006,19.606376066000053],[110.38175649900006,19.706424149000043],[110.33459048800006,19.692342116000077],[110.25848221800004,19.692579301000023],[110.23669640000008,19.67125119800005],[110.23667229200004,19.65699072600006],[110.22938430800008,19.628487681000024],[110.23082279800008,19.61543670100008],[110.20839093300003,19.59024988400006],[110.16940500700008,19.603419555000073],[110.15486666500004,19.633071694000023],[110.10502289100003,19.625211625000077],[110.10686565400005,19.57708450900003],[110.09954138800003,19.544303871000068],[110.15373056400006,19.51439036900007],[110.17134269500008,19.547338575000026],[110.19090037700005,19.52373562400004],[110.18084298600007,19.484928405000062],[110.21677635300006,19.429826],[110.19583927700006,19.40187836900003],[110.16971855500009,19.37752144600006],[110.14422669100009,19.343958216000033],[110.14160537800007,19.308922881000058],[110.16318761700006,19.27382153800005],[110.19478637100008,19.249468726000032],[110.22100262500004,19.21304115600003],[110.23317160100004,19.181449076000035],[110.24453629900006,19.142003482000064],[110.27785056000005,19.150352302000044],[110.30713753900005,19.149416383000073],[110.32838304900008,19.186589311000034],[110.32402962000003,19.225678026000026],[110.31402778100005,19.267900329000042],[110.32240533800007,19.297034332000067],[110.34245138900008,19.323573271000043],[110.37188776000005,19.346559712000044],[110.40921811100009,19.371944992000067],[110.43891268800007,19.37972185800004],[110.47657227600007,19.38437239900003],[110.51749398900006,19.422184883000057],[110.49248877800005,19.443029504000037],[110.45943102900009,19.440748906000067],[110.42914860500008,19.46978568000003],[110.45335517500007,19.51412494300007]]]}},{"type":"Feature","properties":{"shapeName":"Tunchangxian","shapeISO":"","shapeID":"17275852B38709981190197","shapeGroup":"CHN","shapeType":"ADM2"},"geometry":{"type":"Polygon","coordinates":[[[109.92268061900006,19.38514559600003],[109.89703882700007,19.363024804000077],[109.88760640100008,19.323710117000076],[109.85069816400005,19.308261796000068],[109.82490975500008,19.272756512000058],[109.81016857700007,19.243907345000025],[109.82062291900007,19.212333175000026],[109.88789805500005,19.197523717000024],[109.91287079100005,19.181415854000022],[109.93900731000008,19.152882868000063],[109.95502576300004,19.119079962000058],[109.98709435200004,19.11828769300007],[110.01991622300005,19.102751992000037],[110.04388549200007,19.063541990000033],[110.10448504100009,19.048051395000073],[110.10587475900007,19.07660265800007],[110.12248979500004,19.107303685000034],[110.13352585200005,19.13928234900004],[110.16560965400004,19.138432985000065],[110.20097135000009,19.135323588000063],[110.24453629900006,19.142003482000064],[110.23317160100004,19.181449076000035],[110.22100262500004,19.21304115600003],[110.19478637100008,19.249468726000032],[110.16318761700006,19.27382153800005],[110.14160537800007,19.308922881000058],[110.14422669100009,19.343958216000033],[110.16971855500009,19.37752144600006],[110.19583927700006,19.40187836900003],[110.21677635300006,19.429826],[110.18084298600007,19.484928405000062],[110.19090037700005,19.52373562400004],[110.17134269500008,19.547338575000026],[110.15373056400006,19.51439036900007],[110.13321925100007,19.48874604200006],[110.09801694900005,19.476190607000035],[110.07697032500005,19.454662994000046],[110.05470847000004,19.423902499000064],[110.00798290900008,19.42997814000006],[109.96106255400008,19.445692759000053],[109.92700714800009,19.424349860000063],[109.92268061900006,19.38514559600003]]]}},{"type":"Feature","properties":{"shapeName":"Changjianglizuzizhixian","shapeISO":"","shapeID":"17275852B88042861362346","shapeGroup":"CHN","shapeType":"ADM2"},"geometry":{"type":"Polygon","coordinates":[[[108.90626690600004,19.48215847000006],[108.84826923200006,19.436631739000063],[108.80515497100004,19.40883345900005],[108.79218409200007,19.391789446000075],[108.76482027000009,19.385737160000076],[108.73091252700004,19.373955771000055],[108.70263453800004,19.366935108000064],[108.68751567300006,19.364809769000033],[108.67067863100004,19.353292897000074],[108.67090483400005,19.34113392000006],[108.68165034800006,19.323538360000043],[108.66753818900008,19.319552330000022],[108.67735464200007,19.300069681000025],[108.67004399200005,19.287662472000022],[108.68064425200004,19.270723540000063],[108.71701241900007,19.249760297000023],[108.76769714600005,19.236098825000056],[108.80024105500007,19.229344378000064],[108.86148646600009,19.237188539000044],[108.90157975800008,19.201912376000053],[108.91960301600005,19.202104632000044],[108.97024948700005,19.18833823500006],[109.00000775700005,19.102887989000067],[109.00751138600003,19.07437198300005],[109.00092125100008,19.01711768900003],[109.00735678700005,18.973411299000077],[109.01789503400005,18.958967922000056],[109.08263861400007,18.966293104000044],[109.09869162800004,18.940440573000046],[109.08670182700007,18.85706882200003],[109.08904805800006,18.82390669700004],[109.10995233000006,18.805555121000054],[109.16054137500004,18.818913803000044],[109.20534199600007,18.806710269000064],[109.24278962000005,18.809529745000077],[109.26319916700004,18.84281827600006],[109.26637630400006,18.879814390000035],[109.27417124700008,18.917839661000073],[109.27735627300007,18.954361025000026],[109.27360632600005,18.990699775000053],[109.24648048600005,18.998307633000024],[109.20922767900004,19.00333736300007],[109.17457113800003,19.01395836000006],[109.15429518300004,19.042006376000074],[109.14250399300005,19.081342686000028],[109.11264473200004,19.118339073000072],[109.10117095800007,19.146143848000065],[109.13496166200008,19.21663294700005],[109.10627981800008,19.227380978000042],[109.07585459900008,19.233925335000038],[109.07888550700005,19.274085254000056],[109.05057605700006,19.287128664000022],[109.02590054200004,19.303026508000073],[109.01946440800003,19.347519360000035],[109.02835233100006,19.377695819000053],[109.00408783300009,19.394977039000025],[108.97028591700007,19.402771766000058],[108.90626690600004,19.48215847000006]]]}},{"type":"Feature","properties":{"shapeName":"Qionghaishi","shapeISO":"","shapeID":"17275852B87782309196497","shapeGroup":"CHN","shapeType":"ADM2"},"geometry":{"type":"Polygon","coordinates":[[[110.51749398900006,19.422184883000057],[110.47657227600007,19.38437239900003],[110.43891268800007,19.37972185800004],[110.40921811100009,19.371944992000067],[110.37188776000005,19.346559712000044],[110.34245138900008,19.323573271000043],[110.32240533800007,19.297034332000067],[110.31402778100005,19.267900329000042],[110.32402962000003,19.225678026000026],[110.32838304900008,19.186589311000034],[110.30713753900005,19.149416383000073],[110.27785056000005,19.150352302000044],[110.24453629900006,19.142003482000064],[110.20097135000009,19.135323588000063],[110.16560965400004,19.138432985000065],[110.13352585200005,19.13928234900004],[110.12248979500004,19.107303685000034],[110.10587475900007,19.07660265800007],[110.10448504100009,19.048051395000073],[110.10283871500008,19.013858795000033],[110.09409501900006,18.985126281000078],[110.11418289800008,18.951347342000076],[110.14061500700006,18.926427686000068],[110.19273053800003,18.91575772500005],[110.22928196400005,18.893283960000076],[110.26813841200004,18.89758277900006],[110.33508178600005,18.94379249700006],[110.36265446500005,18.959414062000064],[110.40639564200006,18.981248919000052],[110.44464447700005,18.997917890000053],[110.52713971600008,18.99644678800007],[110.53141939000005,19.003781187000072],[110.53896963100004,19.025319289000038],[110.54653213900008,19.036547943000073],[110.56919517600005,19.05618305200005],[110.57392101800008,19.071162078000043],[110.57015487600006,19.09177266100005],[110.56922529500008,19.108632671000066],[110.55695569300008,19.126447099000075],[110.55791152300009,19.153599254000028],[110.57965515100005,19.14981629700003],[110.58532472500008,19.167595926000047],[110.59006153500007,19.175076483000055],[110.62508590000004,19.210575282000036],[110.61090514400007,19.224647670000024],[110.62889783200006,19.241454073000057],[110.63818454500006,19.282446738000033],[110.56722989100007,19.29530866500005],[110.56867955400008,19.325711038000065],[110.55979294600007,19.36196893300007],[110.53239152300006,19.390159733000075],[110.51749398900006,19.422184883000057]]]}},{"type":"Feature","properties":{"shapeName":"Baishalizuzizhixian","shapeISO":"","shapeID":"17275852B70320302334749","shapeGroup":"CHN","shapeType":"ADM2"},"geometry":{"type":"Polygon","coordinates":[[[109.02835233100006,19.377695819000053],[109.01946440800003,19.347519360000035],[109.02590054200004,19.303026508000073],[109.05057605700006,19.287128664000022],[109.07888550700005,19.274085254000056],[109.07585459900008,19.233925335000038],[109.10627981800008,19.227380978000042],[109.13496166200008,19.21663294700005],[109.10117095800007,19.146143848000065],[109.11264473200004,19.118339073000072],[109.14250399300005,19.081342686000028],[109.15429518300004,19.042006376000074],[109.17457113800003,19.01395836000006],[109.20922767900004,19.00333736300007],[109.24648048600005,18.998307633000024],[109.27360632600005,18.990699775000053],[109.27735627300007,18.954361025000026],[109.27417124700008,18.917839661000073],[109.26637630400006,18.879814390000035],[109.29509887400008,18.86300839000006],[109.33404154700008,18.862600137000072],[109.36854432400008,18.87267874500003],[109.43084670800005,18.93830623200006],[109.46561215400004,18.95757817200007],[109.50113744500004,18.946876648000057],[109.52194810700007,18.968570948000036],[109.54340111500005,19.00272213100004],[109.57810554200006,18.986906352000062],[109.59373989900007,19.012614996000025],[109.63120120500008,19.018510891000062],[109.63844392300007,19.04679175700005],[109.66243038200008,19.073124423000024],[109.67048338500007,19.147957544000064],[109.62931182500006,19.139696380000032],[109.58895922200008,19.175669579000044],[109.55670466000004,19.18324328600005],[109.53200323400006,19.223688326000058],[109.49849346500008,19.24364825200007],[109.47919313300008,19.27129786200004],[109.48446057700005,19.30273740000007],[109.46428446600004,19.346473544000048],[109.43644015600006,19.324177336000048],[109.40003436400008,19.309491802000025],[109.34596365600004,19.311863024000047],[109.27963640200005,19.336920341000052],[109.25072977500008,19.32145150200006],[109.21560242800007,19.328376896000066],[109.19027566400007,19.352124177000064],[109.17370418500008,19.378393691000042],[109.12868369400007,19.38825240500006],[109.09236363400004,19.40384997500007],[109.05369583500004,19.403254809000032],[109.02835233100006,19.377695819000053]]]}},{"type":"Feature","properties":{"shapeName":"Qiongzhonglizumiaozuzizhixian","shapeISO":"","shapeID":"17275852B53008264931106","shapeGroup":"CHN","shapeType":"ADM2"},"geometry":{"type":"Polygon","coordinates":[[[109.71596224800004,19.378744322000045],[109.66072399900008,19.35041388700006],[109.63344544400007,19.341538323000066],[109.61958623200007,19.317292473000066],[109.65126743100006,19.29633651300003],[109.68816215900006,19.290677422000044],[109.70605348800007,19.261118054000065],[109.69150582700007,19.225344481000036],[109.67451689200004,19.195502114000078],[109.67048338500007,19.147957544000064],[109.66243038200008,19.073124423000024],[109.63844392300007,19.04679175700005],[109.63120120500008,19.018510891000062],[109.59373989900007,19.012614996000025],[109.57810554200006,18.986906352000062],[109.54340111500005,19.00272213100004],[109.52194810700007,18.968570948000036],[109.50113744500004,18.946876648000057],[109.46561215400004,18.95757817200007],[109.43084670800005,18.93830623200006],[109.36854432400008,18.87267874500003],[109.40009572700006,18.834690658000056],[109.42143512000007,18.796899851000035],[109.43107464900004,18.763438180000037],[109.47685919300005,18.784370429000035],[109.53132972900005,18.791632813000035],[109.57035856900006,18.78559630700005],[109.60354625100007,18.75264353700004],[109.63780150200006,18.75339742700004],[109.67255311000008,18.751841687000024],[109.69973546000006,18.736727208000048],[109.76910042400004,18.71832705500003],[109.81103205700003,18.661006290000046],[109.84274758200007,18.648709264000047],[109.87194225700006,18.66775414600005],[109.91740861700004,18.683866539000064],[109.95859971400006,18.68233564700006],[109.98580674300007,18.662984995000045],[110.02146554500007,18.660401511000032],[110.04691661400005,18.683480752000037],[110.06482694500005,18.715190175000032],[110.06686749200009,18.754459773000065],[110.05733958300004,18.793979254000078],[110.05863765000004,18.823073570000076],[110.11724019100006,18.860996577000037],[110.13513379300008,18.89589578600004],[110.14061500700006,18.926427686000068],[110.11418289800008,18.951347342000076],[110.09409501900006,18.985126281000078],[110.10283871500008,19.013858795000033],[110.10448504100009,19.048051395000073],[110.04388549200007,19.063541990000033],[110.01991622300005,19.102751992000037],[109.98709435200004,19.11828769300007],[109.95502576300004,19.119079962000058],[109.93900731000008,19.152882868000063],[109.91287079100005,19.181415854000022],[109.88789805500005,19.197523717000024],[109.82062291900007,19.212333175000026],[109.81016857700007,19.243907345000025],[109.82490975500008,19.272756512000058],[109.85069816400005,19.308261796000068],[109.88760640100008,19.323710117000076],[109.89703882700007,19.363024804000077],[109.92268061900006,19.38514559600003],[109.89657453300003,19.379055769000047],[109.88211480500007,19.386181332000035],[109.86042292600007,19.39329394200007],[109.83877864600004,19.378991039000027],[109.81710514700006,19.378958199000067],[109.80268531500008,19.36465581400006],[109.78824397500006,19.36462926200005],[109.76651847000005,19.37886337200007],[109.75205872900005,19.385969100000068],[109.73035923100008,19.393055960000027],[109.71596224800004,19.378744322000045]]]}},{"type":"Feature","properties":{"shapeName":"Dongfanglizuzizhixian","shapeISO":"","shapeID":"17275852B93743910489906","shapeGroup":"CHN","shapeType":"ADM2"},"geometry":{"type":"Polygon","coordinates":[[[108.67004399200005,19.287662472000022],[108.63893134300008,19.27974999500003],[108.63440760500004,19.21976223400003],[108.67349479500007,19.202650204000065],[108.67954695900005,19.18215579400004],[108.68079598400004,19.16626074900006],[108.67902324800008,19.159674968000047],[108.66447278500004,19.129456254000047],[108.64120685000006,19.11032147800006],[108.62175177500006,19.090306903000055],[108.61721374700005,19.08085940600006],[108.62719376700005,19.052932007000038],[108.63050448400008,19.02769405500004],[108.64326536300007,19.001682937000055],[108.64458462700009,18.982026597000072],[108.65433007600006,18.914711516000068],[108.65001789700005,18.894011828000032],[108.64958746600007,18.86681512100006],[108.62931892500006,18.842079985000055],[108.62199248000007,18.830699029000073],[108.65359241600004,18.80405760700006],[108.66992382800004,18.786520944000074],[108.70191473000006,18.73641712400007],[108.71300504500005,18.696260520000067],[108.71063809500004,18.670887166000057],[108.70608183500008,18.650596929000073],[108.72642529800004,18.660968711000066],[108.76843955500004,18.67796722500003],[108.79882964700005,18.682586723000043],[108.84562262000009,18.68076281200007],[108.87574991200006,18.694124446000046],[108.90758980200007,18.71214524100003],[108.94176078600009,18.71452105900005],[108.98129318200006,18.707805276000045],[109.03351008500005,18.710660430000075],[109.06502365500006,18.725386671000024],[109.06362278600005,18.75766610100004],[109.09586407500007,18.763628624000035],[109.10995233000006,18.805555121000054],[109.08904805800006,18.82390669700004],[109.08670182700007,18.85706882200003],[109.09869162800004,18.940440573000046],[109.08263861400007,18.966293104000044],[109.01789503400005,18.958967922000056],[109.00735678700005,18.973411299000077],[109.00092125100008,19.01711768900003],[109.00751138600003,19.07437198300005],[109.00000775700005,19.102887989000067],[108.97024948700005,19.18833823500006],[108.91960301600005,19.202104632000044],[108.90157975800008,19.201912376000053],[108.86148646600009,19.237188539000044],[108.80024105500007,19.229344378000064],[108.76769714600005,19.236098825000056],[108.71701241900007,19.249760297000023],[108.68064425200004,19.270723540000063],[108.67004399200005,19.287662472000022]]]}},{"type":"Feature","properties":{"shapeName":"Wanningshi","shapeISO":"","shapeID":"17275852B42599245130625","shapeGroup":"CHN","shapeType":"ADM2"},"geometry":{"type":"Polygon","coordinates":[[[110.14061500700006,18.926427686000068],[110.13513379300008,18.89589578600004],[110.11724019100006,18.860996577000037],[110.05863765000004,18.823073570000076],[110.05733958300004,18.793979254000078],[110.06686749200009,18.754459773000065],[110.06482694500005,18.715190175000032],[110.04691661400005,18.683480752000037],[110.02146554500007,18.660401511000032],[109.99394705200007,18.624808349000034],[109.99265649700004,18.595688191000022],[110.00165653200008,18.560749410000028],[110.04412948700008,18.537955114000056],[110.11623154300008,18.516503534000037],[110.14153505500008,18.54589416700003],[110.19492960800005,18.59107129100005],[110.21181273000008,18.60142692000005],[110.23243526900006,18.617418917000066],[110.25118061700005,18.63903037800003],[110.26901512800004,18.652190492000045],[110.28026490500008,18.666280142000062],[110.30186490300008,18.67756237800006],[110.32444809000003,18.67101126600005],[110.34697085500005,18.698231451000026],[110.37612299900007,18.709497983000063],[110.39118207200005,18.708562997000058],[110.40622505800008,18.709498454000027],[110.42221094900009,18.71512402700006],[110.41187694000007,18.698241403000054],[110.40059181300006,18.69542860200005],[110.37612958500006,18.69448857900005],[110.36296769100005,18.696362003000047],[110.35545606400007,18.690730702000053],[110.34795448700004,18.679468516000043],[110.36488310300007,18.672908219000078],[110.40249675400008,18.678539647000036],[110.42695303200009,18.67572051700006],[110.43634411700003,18.687913981000065],[110.44009338100005,18.705737560000046],[110.44289661200008,18.743256016000032],[110.45041014600008,18.76201198800004],[110.45981685700008,18.773259132000078],[110.46828866400006,18.77888052700007],[110.48899098400005,18.786365690000025],[110.50971064000004,18.789157015000058],[110.52759741500006,18.787258793000035],[110.54737839800003,18.792857742000024],[110.53514792600004,18.825694395000028],[110.52762131800006,18.836956804000067],[110.52102074000004,18.856652152000038],[110.52102652300005,18.87821572200005],[110.51253575300007,18.88103829100004],[110.50877315100007,18.876355826000065],[110.52290054900004,18.827586178000047],[110.51912641800004,18.814463946000046],[110.50971045600005,18.80697393500003],[110.50029201300003,18.805108921000055],[110.48051655600005,18.80419221300002],[110.45791811300006,18.81077144900007],[110.44660397800004,18.822030340000026],[110.43717610200008,18.841725275000044],[110.44848163800003,18.850157142000057],[110.45978075700003,18.85577680800003],[110.47108191700005,18.856706056000064],[110.47390179900009,18.87357626000005],[110.47766234400007,18.882948664000025],[110.48991756200007,18.89793370700005],[110.50123315500008,18.900735060000045],[110.52008357100004,18.908211558000062],[110.52101849700006,18.913834595000026],[110.51726041800003,18.968195493000053],[110.52104011500006,18.985992174000046],[110.52713971600008,18.99644678800007],[110.44464447700005,18.997917890000053],[110.40639564200006,18.981248919000052],[110.36265446500005,18.959414062000064],[110.33508178600005,18.94379249700006],[110.26813841200004,18.89758277900006],[110.22928196400005,18.893283960000076],[110.19273053800003,18.91575772500005],[110.14061500700006,18.926427686000068]]]}},{"type":"Feature","properties":{"shapeName":"Ledonglizuzizhixian","shapeISO":"","shapeID":"17275852B50589627480209","shapeGroup":"CHN","shapeType":"ADM2"},"geometry":{"type":"Polygon","coordinates":[[[109.10995233000006,18.805555121000054],[109.09586407500007,18.763628624000035],[109.06362278600005,18.75766610100004],[109.06502365500006,18.725386671000024],[109.03351008500005,18.710660430000075],[108.98129318200006,18.707805276000045],[108.94176078600009,18.71452105900005],[108.90758980200007,18.71214524100003],[108.87574991200006,18.694124446000046],[108.84562262000009,18.68076281200007],[108.79882964700005,18.682586723000043],[108.76843955500004,18.67796722500003],[108.72642529800004,18.660968711000066],[108.70608183500008,18.650596929000073],[108.69863195700009,18.60686217800003],[108.69146121000006,18.587966601000062],[108.67773672700008,18.568016213000078],[108.67993912300005,18.550214157000028],[108.68592178200004,18.53153792300003],[108.69845803700008,18.513913057000025],[108.71185382600004,18.500055716000077],[108.72981936900004,18.49284567600006],[108.75337774500008,18.487602664000065],[108.80059602700004,18.471466345000067],[108.83360589800009,18.462598676000027],[108.87896589300004,18.443578165000076],[108.89900985000008,18.42321533100005],[108.92370214200008,18.403858268000022],[108.95657194000006,18.401520945000073],[108.98028801900006,18.38401226900004],[108.98235887700008,18.370887698000047],[108.99934078100006,18.364550773000076],[109.00408259700004,18.360858051000037],[109.02094747500007,18.36109333400003],[109.05548834600006,18.37190249100007],[109.08453092400003,18.373229594000065],[109.11182433700009,18.36607007300006],[109.13076807800007,18.352217280000048],[109.14321325800006,18.33358126400003],[109.14816069700004,18.31219161200005],[109.19364588600007,18.356901720000053],[109.18534029100005,18.38997362300006],[109.18917711200004,18.435382867000044],[109.21701130200006,18.44674854300007],[109.24671220000005,18.44104870700005],[109.27523548100004,18.426991305000058],[109.30062840900007,18.444279772000073],[109.35930999300007,18.513224283000056],[109.39918492700008,18.52483113200003],[109.38926620800004,18.551849424000068],[109.35033691400008,18.610021221000068],[109.33924080300005,18.645771205000074],[109.33308085900006,18.686716138000065],[109.35140572300008,18.72965010100006],[109.39272813300005,18.74220381400005],[109.43107464900004,18.763438180000037],[109.42143512000007,18.796899851000035],[109.40009572700006,18.834690658000056],[109.36854432400008,18.87267874500003],[109.33404154700008,18.862600137000072],[109.29509887400008,18.86300839000006],[109.26637630400006,18.879814390000035],[109.26319916700004,18.84281827600006],[109.24278962000005,18.809529745000077],[109.20534199600007,18.806710269000064],[109.16054137500004,18.818913803000044],[109.10995233000006,18.805555121000054]]]}},{"type":"Feature","properties":{"shapeName":"Baotinglizumiaozuzizhixian","shapeISO":"","shapeID":"17275852B85583949591367","shapeGroup":"CHN","shapeType":"ADM2"},"geometry":{"type":"Polygon","coordinates":[[[109.43107464900004,18.763438180000037],[109.39272813300005,18.74220381400005],[109.35140572300008,18.72965010100006],[109.33308085900006,18.686716138000065],[109.33924080300005,18.645771205000074],[109.35033691400008,18.610021221000068],[109.38926620800004,18.551849424000068],[109.39918492700008,18.52483113200003],[109.40984756600005,18.48673392300003],[109.43341166300007,18.467893332000074],[109.50401896100004,18.449687201000074],[109.51572048900005,18.42360994200004],[109.51321830900008,18.393965189000028],[109.50675704300005,18.355441580000047],[109.50436350900009,18.321165756000028],[109.51561580200007,18.29413943800006],[109.56314051300006,18.291531269000075],[109.60305594900007,18.27948047600006],[109.64446685200005,18.281323077000025],[109.68293799000008,18.332104637000043],[109.71232670100005,18.378972839000028],[109.74185621700008,18.399471472000073],[109.80741790400003,18.435555402000034],[109.85020947600009,18.43411461200003],[109.82602751100006,18.45435138000005],[109.79789778900005,18.475041359000045],[109.79302099000006,18.509137975000044],[109.82271272000008,18.524521741000058],[109.83004488100005,18.593038829000022],[109.80703027400006,18.610127514000055],[109.76500985000007,18.60834637100004],[109.74869707900007,18.635718130000043],[109.74983391700005,18.668068224000024],[109.76910042400004,18.71832705500003],[109.69973546000006,18.736727208000048],[109.67255311000008,18.751841687000024],[109.63780150200006,18.75339742700004],[109.60354625100007,18.75264353700004],[109.57035856900006,18.78559630700005],[109.53132972900005,18.791632813000035],[109.47685919300005,18.784370429000035],[109.43107464900004,18.763438180000037]]]}},{"type":"Feature","properties":{"shapeName":"Lingshuilizumiaozuzizhixian","shapeISO":"","shapeID":"17275852B72819681774342","shapeGroup":"CHN","shapeType":"ADM2"},"geometry":{"type":"Polygon","coordinates":[[[109.76910042400004,18.71832705500003],[109.74983391700005,18.668068224000024],[109.74869707900007,18.635718130000043],[109.76500985000007,18.60834637100004],[109.80703027400006,18.610127514000055],[109.83004488100005,18.593038829000022],[109.82271272000008,18.524521741000058],[109.79302099000006,18.509137975000044],[109.79789778900005,18.475041359000045],[109.82602751100006,18.45435138000005],[109.85020947600009,18.43411461200003],[109.80741790400003,18.435555402000034],[109.79694704400004,18.399803704000078],[109.81381103200005,18.401783764000072],[109.83179062800008,18.379339479000066],[109.85518326100004,18.386985130000028],[109.89069570400005,18.405960492000077],[109.92625593700006,18.42022372100007],[109.97129726500003,18.414789846000076],[109.99467059000006,18.43179341700005],[110.01151691800004,18.439373403000047],[110.03774405200005,18.447924284000067],[110.03132464100008,18.41878379900004],[110.01541605300008,18.410270940000032],[109.98918814000007,18.403592510000067],[110.01467097500006,18.370813689000045],[110.06802290000007,18.39166945000005],[110.06043209500007,18.41043204700003],[110.05007138400003,18.41978964200007],[110.05376139200007,18.433890657000063],[110.06592053400004,18.442385924000064],[110.08290137900008,18.42083847400005],[110.10159549400004,18.437800329000027],[110.10528465200008,18.453778831000022],[110.10521639400008,18.470680839000067],[110.10047942600005,18.48099666300004],[110.10039553000007,18.498838472000045],[110.11623154300008,18.516503534000037],[110.04412948700008,18.537955114000056],[110.00165653200008,18.560749410000028],[109.99265649700004,18.595688191000022],[109.99394705200007,18.624808349000034],[110.02146554500007,18.660401511000032],[109.98580674300007,18.662984995000045],[109.95859971400006,18.68233564700006],[109.91740861700004,18.683866539000064],[109.87194225700006,18.66775414600005],[109.84274758200007,18.648709264000047],[109.81103205700003,18.661006290000046],[109.76910042400004,18.71832705500003]]]}},{"type":"Feature","properties":{"shapeName":"Shanyashi","shapeISO":"","shapeID":"17275852B80309702523612","shapeGroup":"CHN","shapeType":"ADM2"},"geometry":{"type":"Polygon","coordinates":[[[109.14816069700004,18.31219161200005],[109.15680793400008,18.299920701000076],[109.17193248300003,18.288830435000023],[109.19164117400004,18.286252725000054],[109.24673373100006,18.30100387600004],[109.31895150600008,18.295234565000044],[109.36868058900006,18.28824198800004],[109.39962195600003,18.286678319000032],[109.46807539800005,18.279822350000074],[109.48036499100004,18.268656771000053],[109.49269425800009,18.253730783000037],[109.50494411000005,18.24632173400005],[109.48279599700004,18.215096424000023],[109.49035904400006,18.20764341000006],[109.49044608300005,18.20012388300006],[109.52593306200004,18.20796258200005],[109.53324182000006,18.22495099100007],[109.54344129100008,18.236318538000035],[109.56394453000007,18.24683294400006],[109.57706035800004,18.246003433000055],[109.55948914400005,18.222354194000047],[109.57651486200007,18.202751942000077],[109.57501514500007,18.16324718800007],[109.62719250800006,18.18717423800007],[109.60459716700007,18.203921404000027],[109.63437130500006,18.222956917000033],[109.64459443100009,18.232435305000024],[109.65859147600008,18.238180845000045],[109.67173898300007,18.234518281000078],[109.70572023700004,18.199035512000023],[109.71868322700004,18.216986641000062],[109.73647019000003,18.21710846900004],[109.74581169800007,18.22092951700006],[109.74759816900007,18.231281677000027],[109.74471348400004,18.24066325000007],[109.72872100900008,18.249958667000044],[109.70620713800008,18.25450537300003],[109.71544350300007,18.272427075000053],[109.73420877700005,18.265975746000038],[109.72738092900005,18.300703982000073],[109.78107694000005,18.390314962000048],[109.79694704400004,18.399803704000078],[109.80741790400003,18.435555402000034],[109.74185621700008,18.399471472000073],[109.71232670100005,18.378972839000028],[109.68293799000008,18.332104637000043],[109.64446685200005,18.281323077000025],[109.60305594900007,18.27948047600006],[109.56314051300006,18.291531269000075],[109.51561580200007,18.29413943800006],[109.50436350900009,18.321165756000028],[109.50675704300005,18.355441580000047],[109.51321830900008,18.393965189000028],[109.51572048900005,18.42360994200004],[109.50401896100004,18.449687201000074],[109.43341166300007,18.467893332000074],[109.40984756600005,18.48673392300003],[109.39918492700008,18.52483113200003],[109.35930999300007,18.513224283000056],[109.30062840900007,18.444279772000073],[109.27523548100004,18.426991305000058],[109.24671220000005,18.44104870700005],[109.21701130200006,18.44674854300007],[109.18917711200004,18.435382867000044],[109.18534029100005,18.38997362300006],[109.19364588600007,18.356901720000053],[109.14816069700004,18.31219161200005]]]}}]}